{
    "links": {
        "self": "http://www.neowsapp.com/rest/v1/neo/3760217?api_key=iIulBulltgU6a56xZRHN4H3l9WmuAYTsLGpBGhQ2"
    },
    "id": "3760217",
    "neo_reference_id": "3760217",
    "name": "(2016 TQ)",
    "designation": "2016 TQ",
    "nasa_jpl_url": "http://ssd.jpl.nasa.gov/sbdb.cgi?sstr=3760217",
    "absolute_magnitude_h": 23.6,
    "estimated_diameter": {
        "kilometers": {
            "estimated_diameter_min": 0.0506471459,
            "estimated_diameter_max": 0.1132504611
        },
        "meters": {
            "estimated_diameter_min": 50.6471458835,
            "estimated_diameter_max": 113.2504610618
        },
        "miles": {
            "estimated_diameter_min": 0.0314706677,
            "estimated_diameter_max": 0.0703705522
        },
        "feet": {
            "estimated_diameter_min": 166.1651821003,
            "estimated_diameter_max": 371.5566426699
        }
    },
    "is_potentially_hazardous_asteroid": false,
    "close_approach_data": [
        {
            "close_approach_date": "2016-10-01",
            "close_approach_date_full": "2016-Oct-01 21:17",
            "epoch_date_close_approach": 1475356620000,
            "relative_velocity": {
                "kilometers_per_second": "28.8240225659",
                "kilometers_per_hour": "103766.4812372065",
                "miles_per_hour": "64476.4560776409"
            },
            "miss_distance": {
                "astronomical": "0.0533131196",
                "lunar": "20.7388035244",
                "kilometers": "7975529.135215252",
                "miles": "4955764.0027923976"
            },
            "orbiting_body": "Earth"
        }
    ],
    "orbital_data": {
        "orbit_id": "5",
        "orbit_determination_date": "2017-04-06 08:23:27",
        "first_observation_date": "2016-10-02",
        "last_observation_date": "2016-10-10",
        "data_arc_in_days": 8,
        "observations_used": 66,
        "orbit_uncertainty": "8",
        "minimum_orbit_intersection": ".053308",
        "jupiter_tisserand_invariant": "4.343",
        "epoch_osculation": "2457664.5",
        "eccentricity": ".2459103129831164",
        "semi_major_axis": "1.38015758877292",
        "inclination": "55.01823909355049",
        "ascending_node_longitude": "189.1190617708911",
        "orbital_period": "592.2314185189902",
        "perihelion_distance": "1.040762604151748",
        "perihelion_argument": "159.1184389773126",
        "aphelion_distance": "1.719552573394092",
        "perihelion_time": "2457643.430536429815",
        "mean_anomaly": "12.80750505306632",
        "mean_motion": ".6078704856629562",
        "equinox": "J2000",
        "orbit_class": {
            "orbit_class_type": "AMO",
            "orbit_class_description": "Near-Earth asteroid orbits similar to that of 1221 Amor",
            "orbit_class_range": "1.017 AU < q (perihelion) < 1.3 AU"
        }
    },
    "is_sentry_object": false
}